{
  "type": "FeatureCollection",
  "features": [
    {
      "type": "Feature",
      "properties": {
        "norad_id": 41019,
        "name": "GPS BIIF-11 (PRN 10)",
        "group": "gnss",
        "lat": -40.31078423685544,
        "lon": 4.755909165977181,
        "alt_km": 20131.63088652631,
        "timestamp": "2025-12-02T06:27:53.256711+00:00",
        "meta_object_name": "GPS BIIF-11 (PRN 10)",
        "meta_object_id": "2015-062A",
        "meta_epoch": "2025-12-01T08:13:28.844544",
        "meta_mean_motion": 2.00567003,
        "meta_eccentricity": 0.01104814,
        "meta_inclination": 56.824,
        "meta_ra_of_asc_node": 38.4433,
        "meta_arg_of_pericenter": 229.6355,
        "meta_mean_anomaly": 129.443,
        "meta_ephemeris_type": 0,
        "meta_classification_type": "U",
        "meta_norad_cat_id": 41019,
        "meta_element_set_no": 999,
        "meta_rev_at_epoch": 7386,
        "meta_bstar": 0,
        "meta_mean_motion_dot": -6.4e-07,
        "meta_mean_motion_ddot": 0,
        "tle_line1": "1 41019U 15062A   25335.34269496 -.00000064  00000+0  00000+0 0  9999",
        "tle_line2": "2 41019  56.8240  38.4433 0110481 229.6355 129.4430  2.00567003 73864"
      },
      "geometry": {
        "type": "Point",
        "coordinates": [
          4.755909165977181,
          -40.31078423685544
        ]
      }
    },
    {
      "type": "Feature",
      "properties": {
        "norad_id": 41028,
        "name": "GSAT-15 (GAGAN/PRN 139)",
        "group": "gnss",
        "lat": -0.025521494147979808,
        "lon": -98.17215263060845,
        "alt_km": 35775.1534298661,
        "timestamp": "2025-12-02T06:27:53.256722+00:00",
        "meta_object_name": "GSAT-15 (GAGAN/PRN 139)",
        "meta_object_id": "2015-065A",
        "meta_epoch": "2025-12-01T15:58:12.726048",
        "meta_mean_motion": 1.00270917,
        "meta_eccentricity": 0.0003058,
        "meta_inclination": 0.0136,
        "meta_ra_of_asc_node": 9.6854,
        "meta_arg_of_pericenter": 222.141,
        "meta_mean_anomaly": 172.0005,
        "meta_ephemeris_type": 0,
        "meta_classification_type": "U",
        "meta_norad_cat_id": 41028,
        "meta_element_set_no": 999,
        "meta_rev_at_epoch": 3681,
        "meta_bstar": 0,
        "meta_mean_motion_dot": -2.36e-06,
        "meta_mean_motion_ddot": 0,
        "tle_line1": "1 41028U 15065A   25335.66542507 -.00000236  00000+0  00000+0 0  9995",
        "tle_line2": "2 41028   0.0136   9.6854 0003058 222.1410 172.0005  1.00270917 36817"
      },
      "geometry": {
        "type": "Point",
        "coordinates": [
          -98.17215263060845,
          -0.025521494147979808
        ]
      }
    },
    {
      "type": "Feature",
      "properties": {
        "norad_id": 41174,
        "name": "GSAT0209 (GALILEO 12)",
        "group": "gnss",
        "lat": -14.86975497294705,
        "lon": -62.91736707184154,
        "alt_km": 23230.828821073126,
        "timestamp": "2025-12-02T06:27:53.256734+00:00",
        "meta_object_name": "GSAT0209 (GALILEO 12)",
        "meta_object_id": "2015-079A",
        "meta_epoch": "2025-11-29T00:19:48.752544",
        "meta_mean_motion": 1.70474337,
        "meta_eccentricity": 0.00023288,
        "meta_inclination": 55.7045,
        "meta_ra_of_asc_node": 106.7579,
        "meta_arg_of_pericenter": 359.5232,
        "meta_mean_anomaly": 0.4568,
        "meta_ephemeris_type": 0,
        "meta_classification_type": "U",
        "meta_norad_cat_id": 41174,
        "meta_element_set_no": 999,
        "meta_rev_at_epoch": 6136,
        "meta_bstar": 0,
        "meta_mean_motion_dot": 5.4e-07,
        "meta_mean_motion_ddot": 0,
        "tle_line1": "1 41174U 15079A   25333.01375871  .00000054  00000+0  00000+0 0  9994",
        "tle_line2": "2 41174  55.7045 106.7579 0002328 359.5232   0.4568  1.70474337 61369"
      },
      "geometry": {
        "type": "Point",
        "coordinates": [
          -62.91736707184154,
          -14.86975497294705
        ]
      }
    },
    {
      "type": "Feature",
      "properties": {
        "norad_id": 41175,
        "name": "GSAT0208 (GALILEO 11)",
        "group": "gnss",
        "lat": 47.38599066228354,
        "lon": 154.50413470261495,
        "alt_km": 23213.044600362304,
        "timestamp": "2025-12-02T06:27:53.256745+00:00",
        "meta_object_name": "GSAT0208 (GALILEO 11)",
        "meta_object_id": "2015-079B",
        "meta_epoch": "2025-11-30T09:46:10.644960",
        "meta_mean_motion": 1.70474193,
        "meta_eccentricity": 0.00018872,
        "meta_inclination": 55.7038,
        "meta_ra_of_asc_node": 106.7167,
        "meta_arg_of_pericenter": 11.7228,
        "meta_mean_anomaly": 348.2564,
        "meta_ephemeris_type": 0,
        "meta_classification_type": "U",
        "meta_norad_cat_id": 41175,
        "meta_element_set_no": 999,
        "meta_rev_at_epoch": 6180,
        "meta_bstar": 0,
        "meta_mean_motion_dot": 4.8e-07,
        "meta_mean_motion_ddot": 0,
        "tle_line1": "1 41175U 15079B   25334.40706765  .00000048  00000+0  00000+0 0  9992",
        "tle_line2": "2 41175  55.7038 106.7167 0001887  11.7228 348.2564  1.70474193 61804"
      },
      "geometry": {
        "type": "Point",
        "coordinates": [
          154.50413470261495,
          47.38599066228354
        ]
      }
    },
    {
      "type": "Feature",
      "properties": {
        "norad_id": 41241,
        "name": "IRNSS-1E",
        "group": "gnss",
        "lat": -19.31698277411095,
        "lon": -84.5048047503181,
        "alt_km": 35707.33327725033,
        "timestamp": "2025-12-02T06:27:53.256759+00:00",
        "meta_object_name": "IRNSS-1E",
        "meta_object_id": "2016-003A",
        "meta_epoch": "2025-12-01T16:03:27.223776",
        "meta_mean_motion": 1.00278544,
        "meta_eccentricity": 0.0021918,
        "meta_inclination": 32.8014,
        "meta_ra_of_asc_node": 62.6145,
        "meta_arg_of_pericenter": 186.5756,
        "meta_mean_anomaly": 174.1351,
        "meta_ephemeris_type": 0,
        "meta_classification_type": "U",
        "meta_norad_cat_id": 41241,
        "meta_element_set_no": 999,
        "meta_rev_at_epoch": 3610,
        "meta_bstar": 0,
        "meta_mean_motion_dot": -2.97e-06,
        "meta_mean_motion_ddot": 0,
        "tle_line1": "1 41241U 16003A   25335.66906509 -.00000297  00000+0  00000+0 0  9998",
        "tle_line2": "2 41241  32.8014  62.6145 0021918 186.5756 174.1351  1.00278544 36108"
      },
      "geometry": {
        "type": "Point",
        "coordinates": [
          -84.5048047503181,
          -19.31698277411095
        ]
      }
    },
    {
      "type": "Feature",
      "properties": {
        "norad_id": 41328,
        "name": "GPS BIIF-12 (PRN 32)",
        "group": "gnss",
        "lat": -50.17183936888512,
        "lon": -26.94324193580903,
        "alt_km": 19946.22625873373,
        "timestamp": "2025-12-02T06:27:53.256770+00:00",
        "meta_object_name": "GPS BIIF-12 (PRN 32)",
        "meta_object_id": "2016-007A",
        "meta_epoch": "2025-11-30T22:13:59.280384",
        "meta_mean_motion": 2.0056118,
        "meta_eccentricity": 0.00915893,
        "meta_inclination": 55.3993,
        "meta_ra_of_asc_node": 97.326,
        "meta_arg_of_pericenter": 243.2849,
        "meta_mean_anomaly": 115.759,
        "meta_ephemeris_type": 0,
        "meta_classification_type": "U",
        "meta_norad_cat_id": 41328,
        "meta_element_set_no": 999,
        "meta_rev_at_epoch": 7186,
        "meta_bstar": 0,
        "meta_mean_motion_dot": 2.3e-07,
        "meta_mean_motion_ddot": 0,
        "tle_line1": "1 41328U 16007A   25334.92638056  .00000023  00000+0  00000+0 0  9991",
        "tle_line2": "2 41328  55.3993  97.3260 0091589 243.2849 115.7590  2.00561180 71868"
      },
      "geometry": {
        "type": "Point",
        "coordinates": [
          -26.94324193580903,
          -50.17183936888512
        ]
      }
    },
    {
      "type": "Feature",
      "properties": {
        "norad_id": 41330,
        "name": "COSMOS 2514 (751)",
        "group": "gnss",
        "lat": 49.01150497851697,
        "lon": -7.990195805618355,
        "alt_km": 19154.905628808297,
        "timestamp": "2025-12-02T06:27:53.256782+00:00",
        "meta_object_name": "COSMOS 2514 (751)",
        "meta_object_id": "2016-008A",
        "meta_epoch": "2025-12-01T06:10:30.326016",
        "meta_mean_motion": 2.13102518,
        "meta_eccentricity": 0.0012529,
        "meta_inclination": 65.1403,
        "meta_ra_of_asc_node": 319.7975,
        "meta_arg_of_pericenter": 219.8281,
        "meta_mean_anomaly": 140.091,
        "meta_ephemeris_type": 0,
        "meta_classification_type": "U",
        "meta_norad_cat_id": 41330,
        "meta_element_set_no": 999,
        "meta_rev_at_epoch": 7640,
        "meta_bstar": 0,
        "meta_mean_motion_dot": -2.7e-07,
        "meta_mean_motion_ddot": 0,
        "tle_line1": "1 41330U 16008A   25335.25729544 -.00000027  00000+0  00000+0 0  9990",
        "tle_line2": "2 41330  65.1403 319.7975 0012529 219.8281 140.0910  2.13102518 76408"
      },
      "geometry": {
        "type": "Point",
        "coordinates": [
          -7.990195805618355,
          49.01150497851697
        ]
      }
    }
  ]
}